STARLINK-4743           
1 53787U 22111Q   26068.85682019  .00001257  00000+0  97113-4 0  9997
2 53787  53.2164 273.2136 0001378  92.0675 268.0475 15.08828112193725
LEMUR-2-LANGER2SPACE    
1 63358U 25061H   26068.93705617  .00006238  00000+0  35148-3 0  9991
2 63358  97.5541  45.3892 0015335 237.4180 122.5571 15.13463796 52602
