[{"OBJECT_NAME":"STARLINK-4743","OBJECT_ID":"2022-111Q","EPOCH":"2026-03-09T20:33:49.264416","MEAN_MOTION":15.08828112,"ECCENTRICITY":0.00013783,"INCLINATION":53.2164,"RA_OF_ASC_NODE":273.2136,"ARG_OF_PERICENTER":92.0675,"MEAN_ANOMALY":268.0475,"EPHEMERIS_TYPE":0,"CLASSIFICATION_TYPE":"U","NORAD_CAT_ID":53787,"ELEMENT_SET_NO":999,"REV_AT_EPOCH":19372,"BSTAR":9.7112669e-5,"MEAN_MOTION_DOT":1.257e-5,"MEAN_MOTION_DDOT":0},{"OBJECT_NAME":"LEMUR-2-LANGER2SPACE","OBJECT_ID":"2025-061H","EPOCH":"2026-03-09T22:29:21.653952","MEAN_MOTION":15.13463796,"ECCENTRICITY":0.00153346,"INCLINATION":97.5541,"RA_OF_ASC_NODE":45.3892,"ARG_OF_PERICENTER":237.418,"MEAN_ANOMALY":122.5571,"EPHEMERIS_TYPE":0,"CLASSIFICATION_TYPE":"U","NORAD_CAT_ID":63358,"ELEMENT_SET_NO":999,"REV_AT_EPOCH":5260,"BSTAR":0.00035148431,"MEAN_MOTION_DOT":6.238e-5,"MEAN_MOTION_DDOT":0}]
